NORAD_CAT_ID,OBJECT_NAME,OBJECT_TYPE,EPOCH,MEAN_MOTION,ECCENTRICITY,INCLINATION,RA_OF_ASC_NODE,ARG_OF_PERICENTER,MEAN_ANOMALY,BSTAR,MEAN_MOTION_DOT,MEAN_MOTION_DDOT,TLE_LINE0,TLE_LINE1,TLE_LINE2,SEMIMAJOR_AXIS,PERIOD,APOGEE,PERIGEE,DECAYED
55412.0,STARLINK-5033,PAYLOAD,2024-04-19 04:24:05,14.98350461,0.0003149,70.0012,22.8331,262.3929,97.6872,6.507e-06,-1.5e-07,0.0,0 STARLINK-5033,1 55412U 23014X   24110.18340127 -.00000015  00000-0  65070-5 0  9991,2 55412  70.0012  22.8331 0003149 262.3929  97.6872 14.98350461 67348,6950.13,96.106,574.183,569.806,0.0
55412.0,STARLINK-5033,PAYLOAD,2024-04-19 20:25:27,14.98316922,0.0002142,70.0038,21.1503,251.504,108.5886,0.00023555,2.718e-05,0.0,0 STARLINK-5033,1 55412U 23014X   24110.85101693  .00002718  00000-0  23555-3 0  9999,2 55412  70.0038  21.1503 0002142 251.5040 108.5886 14.98316922 67447,6950.233,96.108,573.587,570.61,0.0
55412.0,STARLINK-5033,PAYLOAD,2024-04-19 22:01:35,14.98317324,0.0002134,70.0038,20.982,250.7129,109.3799,0.00023773,2.744e-05,0.0,0 STARLINK-5033,1 55412U 23014X   24110.91777709  .00002744  00000-0  23773-3 0  9994,2 55412  70.0038  20.9820 0002134 250.7129 109.3799 14.98317324 68390,6950.232,96.108,573.58,570.614,0.0
55412.0,STARLINK-5033,PAYLOAD,2024-04-20 04:26:07,14.98332675,0.0002807,70.0024,20.3108,245.7773,114.3093,0.00031157,3.627e-05,0.0,0 STARLINK-5033,1 55412U 23014X   24111.18480494  .00003627  00000-0  31157-3 0  9992,2 55412  70.0024  20.3108 0002807 245.7773 114.3093 14.98332675 67493,6950.185,96.107,574.001,570.099,0.0
55412.0,STARLINK-5033,PAYLOAD,2024-04-20 20:27:30,14.98319891,0.0002823,70.0033,18.6269,270.9543,89.1292,-0.00020277,-2.511e-05,0.0,0 STARLINK-5033,1 55412U 23014X   24111.85243075 -.00002511  00000-0 -20277-3 0  9992,2 55412  70.0033  18.6269 0002823 270.9543  89.1292 14.98319891 67590,6950.224,96.108,574.051,570.127,0.0
55412.0,STARLINK-5033,PAYLOAD,2024-04-21 04:28:10,14.98323468,0.0002819,70.0021,17.7845,256.339,103.7456,-0.00018454,-2.294e-05,0.0,0 STARLINK-5033,1 55412U 23014X   24112.18622882 -.00002294  00000-0 -18454-3 0  9998,2 55412  70.0021  17.7845 0002819 256.3390 103.7456 14.98323468 68580,6950.213,96.107,574.037,570.119,0.0
55412.0,STARLINK-5033,PAYLOAD,2024-04-21 20:29:30,14.98331823,0.0002898,70.0021,16.0984,270.381,89.7017,-5.1712e-05,-7.1e-06,0.0,0 STARLINK-5033,1 55412U 23014X   24112.85382116 -.00000710  00000-0 -51712-4 0  9991,2 55412  70.0021  16.0984 0002898 270.3810  89.7017 14.98331823 67743,6950.187,96.107,574.066,570.038,0.0
55412.0,STARLINK-5033,PAYLOAD,2024-04-21 22:05:38,14.98330592,0.0003187,70.0018,15.932,275.1691,84.9104,2.5331e-05,2.09e-06,0.0,0 STARLINK-5033,1 55412U 23014X   24112.92057953  .00000209  00000-0  25331-4 0  9996,2 55412  70.0018  15.9320 0003187 275.1691  84.9104 14.98330592 68694,6950.191,96.107,574.271,569.841,0.0
55412.0,STARLINK-5033,PAYLOAD,2024-04-22 02:54:01,14.98346718,0.0002569,70.0021,15.4246,274.0477,86.0389,0.00013228,1.486e-05,0.0,0 STARLINK-5033,1 55412U 23014X   24113.12084626  .00001486  00000-0  13228-3 0  9995,2 55412  70.0021  15.4246 0002569 274.0477  86.0389 14.98346718 67787,6950.141,96.106,573.792,570.221,0.0
55412.0,STARLINK-5033,PAYLOAD,2024-04-22 20:31:31,14.98313732,0.0003209,70.0013,13.5741,270.0053,90.0738,6.526e-05,6.85e-06,0.0,0 STARLINK-5033,1 55412U 23014X   24113.85522915  .00000685  00000-0  65260-4 0  9997,2 55412  70.0013  13.5741 0003209 270.0053  90.0738 14.98313732 67890,6950.243,96.108,574.339,569.878,0.0
55412.0,STARLINK-5033,PAYLOAD,2024-04-22 22:07:39,14.98318409,0.000287,70.0021,13.4074,256.5231,103.5608,8.9442e-05,9.74e-06,0.0,0 STARLINK-5033,1 55412U 23014X   24113.92198613  .00000974  00000-0  89442-4 0  9998,2 55412  70.0021  13.4074 0002870 256.5231 103.5608 14.98318409 68845,6950.229,96.108,574.088,570.099,0.0
55412.0,STARLINK-5033,PAYLOAD,2024-04-23 02:56:03,14.98317708,0.0002759,70.0022,12.9022,254.1381,105.9474,8.9103e-05,9.7e-06,0.0,0 STARLINK-5033,1 55412U 23014X   24114.12226771  .00000970  00000-0  89103-4 0  9998,2 55412  70.0022  12.9022 0002759 254.1381 105.9474 14.98317708 68870,6950.231,96.108,574.013,570.178,0.0
55412.0,STARLINK-5033,PAYLOAD,2024-04-23 20:33:32,14.98334402,0.0003049,70.0016,11.0501,263.2448,96.8364,-4.6606e-05,-6.49e-06,0.0,0 STARLINK-5033,1 55412U 23014X   24114.85662120 -.00000649  00000-0 -46606-4 0  9996,2 55412  70.0016  11.0501 0003049 263.2448  96.8364 14.98334402 68048,6950.179,96.107,574.163,569.925,0.0
55412.0,STARLINK-5033,PAYLOAD,2024-04-23 22:09:40,14.98337135,0.0002909,70.0016,10.8816,257.8533,102.23,-6.5793e-05,-8.78e-06,0.0,0 STARLINK-5033,1 55412U 23014X   24114.92337986 -.00000878  00000-0 -65793-4 0  9995,2 55412  70.0016  10.8816 0002909 257.8533 102.2300 14.98337135 68994,6950.171,96.107,574.058,570.014,0.0
55412.0,STARLINK-5033,PAYLOAD,2024-04-24 02:58:03,14.98339446,0.0002878,70.0019,10.3773,256.5147,103.5692,3.2089e-05,2.9e-06,0.0,0 STARLINK-5033,1 55412U 23014X   24115.12365450  .00000290  00000-0  32089-4 0  9993,2 55412  70.0019  10.3773 0002878 256.5147 103.5692 14.98339446 68081,6950.164,96.106,574.029,570.028,0.0
55412.0,STARLINK-5033,PAYLOAD,2024-04-24 22:11:39,14.98344154,0.0002665,70.002,8.3566,251.6749,108.412,0.00017974,2.053e-05,0.0,0 STARLINK-5033,1 55412U 23014X   24115.92476292  .00002053  00000-0  17974-3 0  9992,2 55412  70.0020   8.3566 0002665 251.6749 108.4120 14.98344154 69148,6950.149,96.106,573.866,570.162,0.0
55412.0,STARLINK-5033,PAYLOAD,2024-04-25 03:00:02,14.98352107,0.0002736,70.0017,7.8521,251.5292,108.557,0.00025234,2.921e-05,0.0,0 STARLINK-5033,1 55412U 23014X   24116.12503320  .00002921  00000-0  25234-3 0  9990,2 55412  70.0017   7.8521 0002736 251.5292 108.5570 14.98352107 68236,6950.125,96.106,573.891,570.088,0.0
55412.0,STARLINK-5033,PAYLOAD,2024-04-25 20:37:33,14.98328891,0.000288,70.0012,6.0007,257.5467,102.537,-0.0001344,-1.696e-05,0.0,0 STARLINK-5033,1 55412U 23014X   24116.85941558 -.00001696  00000-0 -13440-3 0  9995,2 55412  70.0012   6.0007 0002880 257.5467 102.5370 14.98328891 68348,6950.196,96.107,574.063,570.06,0.0
55412.0,STARLINK-5033,PAYLOAD,2024-04-25 22:13:41,14.98323518,0.0002788,70.0017,5.8322,262.1067,97.9775,-0.00017473,-2.177e-05,0.0,0 STARLINK-5033,1 55412U 23014X   24116.92618048 -.00002177  00000-0 -17473-3 0  9993,2 55412  70.0017   5.8322 0002788 262.1067  97.9775 14.98323518 69297,6950.213,96.107,574.016,570.14,0.0
55412.0,STARLINK-5033,PAYLOAD,2024-04-26 09:26:38,14.98329121,0.0003121,70.0015,4.6512,273.165,86.9152,-0.00013191,-1.667e-05,0.0,0 STARLINK-5033,1 55412U 23014X   24117.39349567 -.00001667  00000-0 -13191-3 0  9998,2 55412  70.0015   4.6512 0003121 273.1650  86.9152 14.98329121 69366,6950.196,96.107,574.23,569.891,0.0
55412.0,STARLINK-5033,PAYLOAD,2024-04-27 01:27:58,14.98328727,0.000302,70.0007,2.9692,268.4249,91.6564,5.9158e-05,6.13e-06,0.0,0 STARLINK-5033,1 55412U 23014X   24118.06109041  .00000613  00000-0  59158-4 0  9996,2 55412  70.0007   2.9692 0003020 268.4249  91.6564 14.98328727 68524,6950.197,96.107,574.161,569.963,0.0
55412.0,STARLINK-5033,PAYLOAD,2024-04-27 09:28:38,14.98339868,0.0003023,70.0019,2.127,272.8429,87.2384,-0.00017725,-2.208e-05,0.0,0 STARLINK-5033,1 55412U 23014X   24118.39488656 -.00002208  00000-0 -17725-3 0  9991,2 55412  70.0019   2.1270 0003023 272.8429  87.2384 14.98339868 69512,6950.162,96.106,574.128,569.926,0.0
55412.0,STARLINK-5033,PAYLOAD,2024-04-27 20:41:35,14.98319341,0.0002833,70.001,0.9508,270.6727,89.4108,6.829e-05,7.22e-06,0.0,0 STARLINK-5033,1 55412U 23014X   24118.86221703  .00000722  00000-0  68290-4 0  9992,2 55412  70.0010   0.9508 0002833 270.6727  89.4108 14.98319341 68643,6950.226,96.108,574.06,570.122,0.0
55412.0,STARLINK-5033,PAYLOAD,2024-04-27 22:17:43,14.98320423,0.0002842,70.001,0.7825,271.1605,88.9228,7.3212e-05,7.8e-06,0.0,0 STARLINK-5033,1 55412U 23014X   24118.92897660  .00000780  00000-0  73212-4 0  9994,2 55412  70.0010   0.7825 0002842 271.1605  88.9228 14.98320423 69599,6950.223,96.108,574.063,570.112,0.0
55412.0,STARLINK-5033,PAYLOAD,2024-04-28 09:30:40,14.98320908,0.0002873,70.0009,359.6037,266.9869,93.0961,5.6723e-05,5.84e-06,0.0,0 STARLINK-5033,1 55412U 23014X   24119.39629901  .00000584  00000-0  56723-4 0  9997,2 55412  70.0009 359.6037 0002873 266.9869  93.0961 14.98320908 69663,6950.221,96.108,574.083,570.089,0.0
55412.0,STARLINK-5033,PAYLOAD,2024-04-28 20:43:36,14.98327192,0.0002936,70.0008,358.4258,272.3138,87.7684,3.1171e-05,2.79e-06,0.0,0 STARLINK-5033,1 55412U 23014X   24119.86361670  .00000279  00000-0  31171-4 0  9996,2 55412  70.0008 358.4258 0002936 272.3138  87.7684 14.98327192 68791,6950.202,96.107,574.107,570.026,0.0
55412.0,STARLINK-5033,PAYLOAD,2024-04-28 22:19:44,14.98329867,0.0002974,70.0007,358.2574,272.0681,88.0137,1.7878e-05,1.2e-06,0.0,0 STARLINK-5033,1 55412U 23014X   24119.93037533  .00000120  00000-0  17878-4 0  9995,2 55412  70.0007 358.2574 0002974 272.0681  88.0137 14.98329867 69745,6950.193,96.107,574.125,569.991,0.0
55412.0,STARLINK-5033,PAYLOAD,2024-04-29 09:32:40,14.9833352,0.0002963,70.0005,357.0786,268.8431,91.2389,-5.5009e-05,-7.49e-06,0.0,0 STARLINK-5033,1 55412U 23014X   24120.39769466 -.00000749  00000-0 -55009-4 0  9991,2 55412  70.0005 357.0786 0002963 268.8431  91.2389 14.98333520 69813,6950.182,96.107,574.106,569.988,0.0
55412.0,STARLINK-5033,PAYLOAD,2024-04-29 20:45:37,14.98328347,0.0003064,70.0003,355.9,269.808,90.2728,8.35e-05,9.03e-06,0.0,0 STARLINK-5033,1 55412U 23014X   24120.86501419  .00000903  00000-0  83500-4 0  9992,2 55412  70.0003 355.9000 0003064 269.8080  90.2728 14.98328347 68941,6950.198,96.107,574.193,569.933,0.0
55412.0,STARLINK-5033,PAYLOAD,2024-04-29 22:21:45,14.98331005,0.0003063,70.0003,355.7314,269.4197,90.6611,6.0188e-05,6.25e-06,0.0,0 STARLINK-5033,1 55412U 23014X   24120.93177310  .00000625  00000-0  60188-4 0  9997,2 55412  70.0003 355.7314 0003063 269.4197  90.6611 14.98331005 69896,6950.19,96.107,574.184,569.926,0.0
